#dP2018  9  3  0  0  0.00000000      96 __u+U ITR00 FIT  IAC
## 2017  86400.00000000   900.00000000 58364 0.0000000000000
+   82   C02C06C07C08C09C10C11C13C14E01E02E03E04E05E07E08E09
+        E11E12E14E18E19E24E26E30G01G02G03G05G06G07G08G09G10
+        G11G12G13G14G15G16G17G18G19G20G21G22G23G24G25G26G27
+        G28G29G30G31G32J01J02J03R01R02R03R04R05R07R08R09R10
+        R11R13R14R15R16R17R18R19R20R21R22R23R24R26  0  0  0
++        15 11 11 11 11 12 10 10 10  9  8  9  8  8  8  9  8
++         8  8  9  8  8  8  9  8  4  5  6  4  5  5  4  4  5
++         4  5  5  5  5  4  4  4  4  4  5  5  5  4  5  4  4
++         4  6  4  5  5 12  0  0  6  6  6  6  6  6  6  6  6
++         6  6  6  6  6  6  7  7  6  6  6  6  6  9  0  0  0
%c M  cc GPS ccc cccc cccc cccc cccc ccccc ccccc ccccc ccccc
%c cc cc ccc ccc cccc cccc cccc cccc ccccc ccccc ccccc ccccc
%f  0.0000000  0.000000000  0.00000000000  0.000000000000000
%f  0.0000000  0.000000000  0.00000000000  0.000000000000000
%i    0    0    0    0      0      0      0      0         0
%i    0    0    0    0      0      0      0      0         0
/* INFORMATION & ANALYSIS CENTER (IAC) OF MCC   (RAPID DATA)
/* S/V CLOCKS ARE ALIGNED TO GPS & GLONASS TIME RESPECTIVELY
/* USING THE BROADCAST EPHEMERIS                            
/* PCV:IGS14_2000 OL/AL:FES2004  NONE     YN ORB:CoN CLK:CoN
*  2018 09 03 17 45  0.00000000
PC02   4365.582985  41919.144392  -1413.573456 999999.999999
PC06 -19673.474827  37026.059770   2232.087017 999999.999999
PC07  -7199.235690  29970.516183  29110.549393 999999.999999
PC08 -21506.930036  19228.101542 -30792.739507 999999.999999
PC09 -10506.872173  37517.336387  15898.316891 999999.999999
PC10   4693.214380  36472.216362  21115.157349 999999.999999
PC11  24649.036300 -12895.174654  -1509.358641 999999.999999
PC13  -5324.439963  23434.576781 -34668.351507 999999.999999
PC14  14819.381645 -10470.266468  21271.323465 999999.999999
PE01   6226.019150 -16771.333369 -23573.653866 999999.999999
PE02  -6185.134429  16815.215458  23568.375390 999999.999999
PE03 -13620.164713  25834.246487  -4865.578790 999999.999999
PE04    132.669197 -26494.878813 -13189.180070 999999.999999
PE05 -19200.728380  10015.873261 -20174.591623 999999.999999
PE07  13532.225771  11615.342805  23636.927813 999999.999999
PE08     63.222026  26465.962241  13276.989072 999999.999999
PE09 -13493.950457 -11439.564122 -23720.101867 999999.999999
PE11 -23729.675625  -7003.805855  16229.349183 999999.999999
PE12  -4058.840839 -16017.333358  24555.528683 999999.999999
PE14  20421.293307   8113.032818 -24039.296765 999999.999999
PE18 -16612.826077  -3173.392289  16246.463762 999999.999999
PE19  14485.719668 -24934.989924   6690.379690 999999.999999
PE24 -21631.525509 -18664.179194   7744.240324 999999.999999
PE26  29019.185128  -5675.382159   1245.074197 999999.999999
PE30  10891.742588  25157.258868  11168.876245 999999.999999
PG01  19283.004325  13686.567372 -12559.510150 999999.999999
PG02   1289.173560 -15695.842520  21967.812029 999999.999999
PG03  13492.663016  20365.524769  10476.148289 999999.999999
PG05  -1716.566645 -25055.972151   8195.644367 999999.999999
PG06  18101.586103  -8055.727380  17727.125283 999999.999999
PG07  26124.188290   5780.004668  -1545.085193 999999.999999
PG08   1150.880450  18127.967806 -19277.055347 999999.999999
PG09  18210.327289    607.043496  19295.252420 999999.999999
PG10 -13222.705041   8151.806032 -21484.173776 999999.999999
PG11  14775.643038  12236.343973 -18856.054224 999999.999999
PG12  -9324.858852 -24229.863849   5843.194574 999999.999999
PG13   7778.172247 -20171.001704 -15527.652803 999999.999999
PG14 -18176.652598  19041.092559   3010.922970 999999.999999
PG15  -7009.098790 -15658.841959 -20419.908106 999999.999999
PG16  -1589.781446  24411.784643   9645.613720 999999.999999
PG17  21306.849687 -14213.243486  -6388.944535 999999.999999
PG18  10797.282565  15902.991701 -18873.037906 999999.999999
PG19  18927.335422 -18514.760797   2605.588691 999999.999999
PG20 -17209.758548  -1924.201012 -20282.859787 999999.999999
PG21 -25995.955717  -1938.304463  -4141.852235 999999.999999
PG22  11006.889761  24034.143932   2978.154690 999999.999999
PG23  12286.376750   9876.200668  21688.686595 999999.999999
PG24 -15961.818106 -14767.461172 -15568.131484 999999.999999
PG25 -15658.529727 -13373.484069  16720.967985 999999.999999
PG26  -7257.809903  18481.548410  17568.227109 999999.999999
PG27  -9217.079231  21611.583688 -12213.009325 999999.999999
PG28  13706.008426  -4692.574472 -21645.205271 999999.999999
PG29 -17110.705351  -2426.368683  20142.398209 999999.999999
PG30  23791.824956  -1843.124182 -11823.988687 999999.999999
PG31 -16697.222223   8965.414164  18810.479131 999999.999999
PG32 -20635.094490  15398.944168  -6280.025087 999999.999999
PJ01 -16328.529031  32214.228434 -17169.950556 999999.999999
PJ02      0.000000      0.000000      0.000000 999999.999999
PJ03      0.000000      0.000000      0.000000 999999.999999
PR01   9293.429207   8955.293716  22007.351580 999999.999999
PR02  11455.731062 -12690.623116  18989.344303 999999.999999
PR03   6451.501316 -24342.297774   4237.769841 999999.999999
PR04  -2604.836677 -21556.473092 -13382.788201 999999.999999
PR05  -9597.733259  -6754.307281 -22639.367886 999999.999999
PR07  -6216.494369  24441.101300  -3671.957722 999999.999999
PR08   2274.508726  21910.687997  12910.161192 999999.999999
PR09 -14181.147965   1288.307018  21163.053812 999999.999999
PR10    -51.869612  13266.369358  21791.918063 999999.999999
PR11  14709.907256  18619.127860   9452.860016 999999.999999
PR13  14348.613792   -919.121560 -21084.805612 999999.999999
PR14    313.508919 -13318.105085 -21730.729077 999999.999999
PR15 -11784.810731 -18337.416783 -13311.553970 999999.999999
PR16 -20895.501151 -12884.500967   7107.498559 999999.999999
PR17  13888.624930 -13140.751936  16864.318167 999999.999999
PR18  -3393.955042 -10026.098866  23215.433580 999999.999999
PR19 -19125.767361  -1667.675871  16793.059467 999999.999999
PR20 -24088.912929   8285.601404   -779.708999 999999.999999
PR21 -13587.991841  13117.606308 -17167.213236 999999.999999
PR22   5842.827908   9063.378170 -23125.590747 999999.999999
PR23  21591.961706  -1038.907906 -13551.846300 999999.999999
PR24  23720.203352  -9193.387810   1902.051131 999999.999999
PR26 -24157.265453   8220.461863    528.068472 999999.999999
EOF
